{
  "type": "FeatureCollection",
  "features": [
    {
      "type": "Feature",
      "properties": {
        "norad_id": 37238,
        "name": "INTELSAT 17 (IS-17)",
        "group": "intelsat",
        "lat": 0.031611794694751394,
        "lon": -14.241098145554902,
        "alt_km": 35784.204316549956,
        "timestamp": "2025-12-02T13:52:16.943254+00:00",
        "meta_object_name": "INTELSAT 17 (IS-17)",
        "meta_object_id": "2010-065B",
        "meta_epoch": "2025-12-02T03:49:10.527168",
        "meta_mean_motion": 1.00272254,
        "meta_eccentricity": 0.00026832,
        "meta_inclination": 0.0191,
        "meta_ra_of_asc_node": 277.0295,
        "meta_arg_of_pericenter": 347.6079,
        "meta_mean_anomaly": 289.9288,
        "meta_ephemeris_type": 0,
        "meta_classification_type": "U",
        "meta_norad_cat_id": 37238,
        "meta_element_set_no": 999,
        "meta_rev_at_epoch": 5127,
        "meta_bstar": 0,
        "meta_mean_motion_dot": 1.9e-07,
        "meta_mean_motion_ddot": 0,
        "tle_line1": "1 37238U 10065B   25336.15914962  .00000019  00000+0  00000+0 0  9999",
        "tle_line2": "2 37238   0.0191 277.0295 0002683 347.6079 289.9288  1.00272254 51277"
      },
      "geometry": {
        "type": "Point",
        "coordinates": [
          -14.241098145554902,
          0.031611794694751394
        ]
      }
    },
    {
      "type": "Feature",
      "properties": {
        "norad_id": 37392,
        "name": "INTELSAT 28 (IS-28)",
        "group": "intelsat",
        "lat": 0.3595218359369107,
        "lon": -111.98938313584149,
        "alt_km": 35769.34701461084,
        "timestamp": "2025-12-02T13:52:16.943266+00:00",
        "meta_object_name": "INTELSAT 28 (IS-28)",
        "meta_object_id": "2011-016A",
        "meta_epoch": "2025-12-02T03:21:35.668224",
        "meta_mean_motion": 1.00269802,
        "meta_eccentricity": 0.00041355,
        "meta_inclination": 1.2948,
        "meta_ra_of_asc_node": 85.184,
        "meta_arg_of_pericenter": 172.321,
        "meta_mean_anomaly": 192.4347,
        "meta_ephemeris_type": 0,
        "meta_classification_type": "U",
        "meta_norad_cat_id": 37392,
        "meta_element_set_no": 999,
        "meta_rev_at_epoch": 5131,
        "meta_bstar": 0,
        "meta_mean_motion_dot": -2.04e-06,
        "meta_mean_motion_ddot": 0,
        "tle_line1": "1 37392U 11016A   25336.13999616 -.00000204  00000+0  00000+0 0  9991",
        "tle_line2": "2 37392   1.2948  85.1840 0004135 172.3210 192.4347  1.00269802 51313"
      },
      "geometry": {
        "type": "Point",
        "coordinates": [
          -111.98938313584149,
          0.3595218359369107
        ]
      }
    },
    {
      "type": "Feature",
      "properties": {
        "norad_id": 37834,
        "name": "INTELSAT 18 (IS-18)",
        "group": "intelsat",
        "lat": 0.02885794313458931,
        "lon": 99.71173415944027,
        "alt_km": 35794.25058222813,
        "timestamp": "2025-12-02T13:52:16.943277+00:00",
        "meta_object_name": "INTELSAT 18 (IS-18)",
        "meta_object_id": "2011-056A",
        "meta_epoch": "2025-12-02T04:22:04.146816",
        "meta_mean_motion": 1.00270867,
        "meta_eccentricity": 0.00021108,
        "meta_inclination": 0.0194,
        "meta_ra_of_asc_node": 329.3388,
        "meta_arg_of_pericenter": 283.1071,
        "meta_mean_anomaly": 64.3627,
        "meta_ephemeris_type": 0,
        "meta_classification_type": "U",
        "meta_norad_cat_id": 37834,
        "meta_element_set_no": 999,
        "meta_rev_at_epoch": 5183,
        "meta_bstar": 0,
        "meta_mean_motion_dot": 7.4e-07,
        "meta_mean_motion_ddot": 0,
        "tle_line1": "1 37834U 11056A   25336.18199244  .00000074  00000+0  00000+0 0  9994",
        "tle_line2": "2 37834   0.0194 329.3388 0002110 283.1071  64.3627  1.00270867 51839"
      },
      "geometry": {
        "type": "Point",
        "coordinates": [
          99.71173415944027,
          0.02885794313458931
        ]
      }
    },
    {
      "type": "Feature",
      "properties": {
        "norad_id": 38098,
        "name": "INTELSAT 22 (IS-22)",
        "group": "intelsat",
        "lat": 0.006421087901551304,
        "lon": -8.148541861151836,
        "alt_km": 35786.37766953201,
        "timestamp": "2025-12-02T13:52:16.943289+00:00",
        "meta_object_name": "INTELSAT 22 (IS-22)",
        "meta_object_id": "2012-011A",
        "meta_epoch": "2025-12-02T04:00:38.579616",
        "meta_mean_motion": 1.00271784,
        "meta_eccentricity": 0.00017215,
        "meta_inclination": 0.0023,
        "meta_ra_of_asc_node": 359.2289,
        "meta_arg_of_pericenter": 260.3702,
        "meta_mean_anomaly": 303.9458,
        "meta_ephemeris_type": 0,
        "meta_classification_type": "U",
        "meta_norad_cat_id": 38098,
        "meta_element_set_no": 999,
        "meta_rev_at_epoch": 521,
        "meta_bstar": 0,
        "meta_mean_motion_dot": -3.8e-07,
        "meta_mean_motion_ddot": 0,
        "tle_line1": "1 38098U 12011A   25336.16711319 -.00000038  00000+0  00000+0 0  9991",
        "tle_line2": "2 38098   0.0023 359.2289 0001721 260.3702 303.9458  1.00271784  5214"
      },
      "geometry": {
        "type": "Point",
        "coordinates": [
          -8.148541861151836,
          0.006421087901551304
        ]
      }
    },
    {
      "type": "Feature",
      "properties": {
        "norad_id": 38356,
        "name": "INTELSAT 19 (IS-19)",
        "group": "intelsat",
        "lat": 0.02655353664245052,
        "lon": 85.73536814173862,
        "alt_km": 35800.42961438384,
        "timestamp": "2025-12-02T13:52:16.943301+00:00",
        "meta_object_name": "INTELSAT 19 (IS-19)",
        "meta_object_id": "2012-030A",
        "meta_epoch": "2025-12-02T06:00:47.190816",
        "meta_mean_motion": 1.00271601,
        "meta_eccentricity": 0.00034198,
        "meta_inclination": 0.0106,
        "meta_ra_of_asc_node": 319.7251,
        "meta_arg_of_pericenter": 297.0364,
        "meta_mean_anomaly": 70.8117,
        "meta_ephemeris_type": 0,
        "meta_classification_type": "U",
        "meta_norad_cat_id": 38356,
        "meta_element_set_no": 999,
        "meta_rev_at_epoch": 4847,
        "meta_bstar": 0,
        "meta_mean_motion_dot": -3.5e-07,
        "meta_mean_motion_ddot": 0,
        "tle_line1": "1 38356U 12030A   25336.25054619 -.00000035  00000+0  00000+0 0  9999",
        "tle_line2": "2 38356   0.0106 319.7251 0003419 297.0364  70.8117  1.00271601 48475"
      },
      "geometry": {
        "type": "Point",
        "coordinates": [
          85.73536814173862,
          0.02655353664245052
        ]
      }
    },
    {
      "type": "Feature",
      "properties": {
        "norad_id": 38740,
        "name": "INTELSAT 20 (IS-20)",
        "group": "intelsat",
        "lat": 0.016997904356460026,
        "lon": -11.78740832601616,
        "alt_km": 35799.01338117355,
        "timestamp": "2025-12-02T13:52:16.943313+00:00",
        "meta_object_name": "INTELSAT 20 (IS-20)",
        "meta_object_id": "2012-043A",
        "meta_epoch": "2025-12-02T00:24:39.918816",
        "meta_mean_motion": 1.00268447,
        "meta_eccentricity": 0.00030847,
        "meta_inclination": 0.0115,
        "meta_ra_of_asc_node": 324.2147,
        "meta_arg_of_pericenter": 225.9347,
        "meta_mean_anomaly": 315.6275,
        "meta_ephemeris_type": 0,
        "meta_classification_type": "U",
        "meta_norad_cat_id": 38740,
        "meta_element_set_no": 999,
        "meta_rev_at_epoch": 4877,
        "meta_bstar": 0,
        "meta_mean_motion_dot": 0,
        "meta_mean_motion_ddot": 0,
        "tle_line1": "1 38740U 12043A   25336.01712869  .00000000  00000+0  00000+0 0  9993",
        "tle_line2": "2 38740   0.0115 324.2147 0003084 225.9347 315.6275  1.00268447 48778"
      },
      "geometry": {
        "type": "Point",
        "coordinates": [
          -11.78740832601616,
          0.016997904356460026
        ]
      }
    },
    {
      "type": "Feature",
      "properties": {
        "norad_id": 38749,
        "name": "INTELSAT 21 (IS-21)",
        "group": "intelsat",
        "lat": -0.03981356628859341,
        "lon": -138.27933793861948,
        "alt_km": 35777.239563023664,
        "timestamp": "2025-12-02T13:52:16.943324+00:00",
        "meta_object_name": "INTELSAT 21 (IS-21)",
        "meta_object_id": "2012-045A",
        "meta_epoch": "2025-12-02T04:56:53.310912",
        "meta_mean_motion": 1.00269285,
        "meta_eccentricity": 0.00024063,
        "meta_inclination": 0.0159,
        "meta_ra_of_asc_node": 312.5777,
        "meta_arg_of_pericenter": 288.9047,
        "meta_mean_anomaly": 206.0643,
        "meta_ephemeris_type": 0,
        "meta_classification_type": "U",
        "meta_norad_cat_id": 38749,
        "meta_element_set_no": 999,
        "meta_rev_at_epoch": 4855,
        "meta_bstar": 0,
        "meta_mean_motion_dot": -2.64e-06,
        "meta_mean_motion_ddot": 0,
        "tle_line1": "1 38749U 12045A   25336.20617258 -.00000264  00000+0  00000+0 0  9994",
        "tle_line2": "2 38749   0.0159 312.5777 0002406 288.9047 206.0643  1.00269285 48556"
      },
      "geometry": {
        "type": "Point",
        "coordinates": [
          -138.27933793861948,
          -0.03981356628859341
        ]
      }
    }
  ]
}